start=new Date('2022-06-17T00:00:00.000Z').valueOf();
sats=[{"OBJECT_NAME":"STARLINK-3227","CLASSIFICATION_TYPE":"U","SEMIMAJOR_AXIS":"6917.897","CENTER_NAME":"EARTH","DECAY_DATE":null,"ELEMENT_SET_NO":"999","LAUNCH_DATE":"2021-12-02","TIME_SYSTEM":"UTC","TLE_LINE1":"1 49765U 21115AT  22166.61728674 -.00001130  00000-0 -52881-4 0  9994","RCS_SIZE":"LARGE","SITE":"AFETR","INCLINATION":"53.2199","RA_OF_ASC_NODE":"138.1861","MEAN_MOTION_DOT":"-0.00001130","REV_AT_EPOCH":"2990","PERIAPSIS":"537.830","OBJECT_ID":"2021-115AT","GP_ID":"206238134","REF_FRAME":"TEME","OBJECT_TYPE":"PAYLOAD","EPHEMERIS_TYPE":"0","NORAD_CAT_ID":"49765","MEAN_ANOMALY":"308.6071","ARG_OF_PERICENTER":"51.5171","MEAN_ELEMENT_THEORY":"SGP4","TLE_LINE2":"2 49765  53.2199 138.1861 0002792  51.5171 308.6071 15.08834676 29903","MEAN_MOTION_DDOT":"0.0000000000000","ECCENTRICITY":"0.00027920","MEAN_MOTION":"15.08834676","COUNTRY_CODE":"US","FILE":"3496999","APOAPSIS":"541.693","EPOCH":"2022-06-15T14:48:53.574336","PERIOD":"95.438","BSTAR":"-0.00005288100000"},{"MEAN_MOTION_DDOT":"0.0000000000000","ECCENTRICITY":"0.00028770","TLE_LINE2":"2 49766  53.2197 136.9422 0002877  47.5859 312.5376 15.08843827 29947","NORAD_CAT_ID":"49766","EPHEMERIS_TYPE":"0","ARG_OF_PERICENTER":"47.5859","MEAN_ANOMALY":"312.5376","MEAN_ELEMENT_THEORY":"SGP4","GP_ID":"206290137","PERIAPSIS":"537.743","OBJECT_ID":"2021-115AU","OBJECT_TYPE":"PAYLOAD","REF_FRAME":"TEME","PERIOD":"95.437","EPOCH":"2022-06-15T21:31:37.280928","BSTAR":"-0.00003600300000","FILE":"3497002","APOAPSIS":"541.724","COUNTRY_CODE":"US","MEAN_MOTION":"15.08843827","LAUNCH_DATE":"2021-12-02","TIME_SYSTEM":"UTC","TLE_LINE1":"1 49766U 21115AU  22166.89695927 -.00000862  00000-0 -36003-4 0  9998","ELEMENT_SET_NO":"999","DECAY_DATE":null,"SEMIMAJOR_AXIS":"6917.869","CENTER_NAME":"EARTH","OBJECT_NAME":"STARLINK-3190","CLASSIFICATION_TYPE":"U","REV_AT_EPOCH":"2994","MEAN_MOTION_DOT":"-0.00000862","INCLINATION":"53.2197","RA_OF_ASC_NODE":"136.9422","SITE":"AFETR","RCS_SIZE":"LARGE"},{"LAUNCH_DATE":"2021-12-02","TIME_SYSTEM":"UTC","TLE_LINE1":"1 49767U 21115AV  22166.95584071  .00000551  00000-0  52766-4 0  9990","ELEMENT_SET_NO":"999","DECAY_DATE":null,"SEMIMAJOR_AXIS":"6917.885","CENTER_NAME":"EARTH","OBJECT_NAME":"STARLINK-3192","CLASSIFICATION_TYPE":"U","REV_AT_EPOCH":"2995","MEAN_MOTION_DOT":"0.00000551","INCLINATION":"53.2202","RA_OF_ASC_NODE":"136.6795","SITE":"AFETR","RCS_SIZE":"LARGE","MEAN_MOTION_DDOT":"0.0000000000000","ECCENTRICITY":"0.00025930","TLE_LINE2":"2 49767  53.2202 136.6795 0002593  52.0899 308.0327 15.08838525 29951","NORAD_CAT_ID":"49767","EPHEMERIS_TYPE":"0","MEAN_ANOMALY":"308.0327","ARG_OF_PERICENTER":"52.0899","MEAN_ELEMENT_THEORY":"SGP4","GP_ID":"206290885","PERIAPSIS":"537.956","OBJECT_ID":"2021-115AV","OBJECT_TYPE":"PAYLOAD","REF_FRAME":"TEME","PERIOD":"95.438","EPOCH":"2022-06-15T22:56:24.637344","BSTAR":"0.00005276600000","APOAPSIS":"541.544","FILE":"3497002","COUNTRY_CODE":"US","MEAN_MOTION":"15.08838525"},{"CLASSIFICATION_TYPE":"U","OBJECT_NAME":"STARLINK-3196","CENTER_NAME":"EARTH","SEMIMAJOR_AXIS":"6917.870","ELEMENT_SET_NO":"999","DECAY_DATE":null,"TLE_LINE1":"1 49768U 21115AW  22166.63937039  .00000123  00000-0  25828-4 0  9996","TIME_SYSTEM":"UTC","LAUNCH_DATE":"2021-12-02","RCS_SIZE":"LARGE","SITE":"AFETR","RA_OF_ASC_NODE":"138.0951","INCLINATION":"53.2165","REV_AT_EPOCH":"2990","MEAN_MOTION_DOT":"0.00000123","OBJECT_TYPE":"PAYLOAD","REF_FRAME":"TEME","GP_ID":"206239886","PERIAPSIS":"538.135","OBJECT_ID":"2021-115AW","MEAN_ANOMALY":"304.8176","ARG_OF_PERICENTER":"55.3034","MEAN_ELEMENT_THEORY":"SGP4","NORAD_CAT_ID":"49768","EPHEMERIS_TYPE":"0","TLE_LINE2":"2 49768  53.2165 138.0951 0002314  55.3034 304.8176 15.08843298 29902","ECCENTRICITY":"0.00023140","MEAN_MOTION_DDOT":"0.0000000000000","MEAN_MOTION":"15.08843298","FILE":"3496999","APOAPSIS":"541.336","COUNTRY_CODE":"US","BSTAR":"0.00002582800000","PERIOD":"95.437","EPOCH":"2022-06-15T15:20:41.601696"},{"COUNTRY_CODE":"US","APOAPSIS":"541.950","FILE":"3496999","EPOCH":"2022-06-15T15:15:23.089824","PERIOD":"95.438","BSTAR":"-0.00003622600000","MEAN_MOTION":"15.08840023","TLE_LINE2":"2 49769  53.2196 138.1174 0003187  51.8174 308.3105 15.08840023 29904","MEAN_MOTION_DDOT":"0.0000000000000","ECCENTRICITY":"0.00031870","OBJECT_ID":"2021-115AX","PERIAPSIS":"537.541","GP_ID":"206238634","REF_FRAME":"TEME","OBJECT_TYPE":"PAYLOAD","EPHEMERIS_TYPE":"0","NORAD_CAT_ID":"49769","ARG_OF_PERICENTER":"51.8174","MEAN_ANOMALY":"308.3105","MEAN_ELEMENT_THEORY":"SGP4","INCLINATION":"53.2196","RA_OF_ASC_NODE":"138.1174","REV_AT_EPOCH":"2990","MEAN_MOTION_DOT":"-0.00000865","RCS_SIZE":"LARGE","SITE":"AFETR","DECAY_DATE":null,"ELEMENT_SET_NO":"999","TIME_SYSTEM":"UTC","LAUNCH_DATE":"2021-12-02","TLE_LINE1":"1 49769U 21115AX  22166.63568391 -.00000865  00000-0 -36226-4 0  9997","OBJECT_NAME":"STARLINK-3208","CLASSIFICATION_TYPE":"U","SEMIMAJOR_AXIS":"6917.880","CENTER_NAME":"EARTH"},{"REV_AT_EPOCH":"3102","MEAN_MOTION_DOT":"-0.00001246","INCLINATION":"53.2181","RA_OF_ASC_NODE":"138.0886","SITE":"AFETR","RCS_SIZE":"LARGE","LAUNCH_DATE":"2021-12-02","TIME_SYSTEM":"UTC","TLE_LINE1":"1 49770U 21115AY  22166.64304266 -.00001246  00000-0 -60192-4 0  9992","ELEMENT_SET_NO":"999","DECAY_DATE":null,"SEMIMAJOR_AXIS":"6917.891","CENTER_NAME":"EARTH","OBJECT_NAME":"STARLINK-3191","CLASSIFICATION_TYPE":"U","PERIOD":"95.438","EPOCH":"2022-06-15T15:25:58.885824","BSTAR":"-0.00006019200000","FILE":"3496999","APOAPSIS":"541.734","COUNTRY_CODE":"US","MEAN_MOTION":"15.08836683","MEAN_MOTION_DDOT":"0.0000000000000","ECCENTRICITY":"0.00028600","TLE_LINE2":"2 49770  53.2181 138.0886 0002860  42.5580 317.5633 15.08836683 31025","NORAD_CAT_ID":"49770","EPHEMERIS_TYPE":"0","ARG_OF_PERICENTER":"42.5580","MEAN_ANOMALY":"317.5633","MEAN_ELEMENT_THEORY":"SGP4","GP_ID":"206238884","OBJECT_ID":"2021-115AY","PERIAPSIS":"537.777","OBJECT_TYPE":"PAYLOAD","REF_FRAME":"TEME"},{"FILE":"3496999","APOAPSIS":"541.537","COUNTRY_CODE":"US","BSTAR":"0.00002458100000","PERIOD":"95.437","EPOCH":"2022-06-15T15:31:16.989888","MEAN_MOTION":"15.08851289","TLE_LINE2":"2 49771  53.2150 138.0614 0002639  52.8599 307.2634 15.08851289 29909","ECCENTRICITY":"0.00026390","MEAN_MOTION_DDOT":"0.0000000000000","OBJECT_TYPE":"PAYLOAD","REF_FRAME":"TEME","GP_ID":"206239136","PERIAPSIS":"537.885","OBJECT_ID":"2021-115AZ","MEAN_ANOMALY":"307.2634","ARG_OF_PERICENTER":"52.8599","MEAN_ELEMENT_THEORY":"SGP4","NORAD_CAT_ID":"49771","EPHEMERIS_TYPE":"0","RA_OF_ASC_NODE":"138.0614","INCLINATION":"53.2150","REV_AT_EPOCH":"2990","MEAN_MOTION_DOT":"0.00000103","RCS_SIZE":"LARGE","SITE":"AFETR","ELEMENT_SET_NO":"999","DECAY_DATE":null,"TLE_LINE1":"1 49771U 21115AZ  22166.64672442  .00000103  00000-0  24581-4 0  9998","TIME_SYSTEM":"UTC","LAUNCH_DATE":"2021-12-02","CLASSIFICATION_TYPE":"U","OBJECT_NAME":"STARLINK-3201","CENTER_NAME":"EARTH","SEMIMAJOR_AXIS":"6917.846"},{"PERIOD":"95.438","EPOCH":"2022-06-15T22:16:43.778208","BSTAR":"-0.00007000900000","FILE":"3497002","APOAPSIS":"541.373","COUNTRY_CODE":"US","MEAN_MOTION":"15.08831478","MEAN_MOTION_DDOT":"0.0000000000000","ECCENTRICITY":"0.00023150","TLE_LINE2":"2 50156  53.2184 246.7898 0002315  35.5556 324.5590 15.08831478 30901","NORAD_CAT_ID":"50156","EPHEMERIS_TYPE":"0","MEAN_ANOMALY":"324.5590","MEAN_ELEMENT_THEORY":"SGP4","ARG_OF_PERICENTER":"35.5556","GP_ID":"206290662","OBJECT_ID":"2021-125A","PERIAPSIS":"538.170","OBJECT_TYPE":"PAYLOAD","REF_FRAME":"TEME","REV_AT_EPOCH":"3090","MEAN_MOTION_DOT":"-0.00001402","INCLINATION":"53.2184","RA_OF_ASC_NODE":"246.7898","SITE":"AFWTR","RCS_SIZE":"LARGE","TIME_SYSTEM":"UTC","LAUNCH_DATE":"2021-12-18","TLE_LINE1":"1 50156U 21125A   22166.92828447 -.00001402  00000-0 -70009-4 0  9998","ELEMENT_SET_NO":"999","DECAY_DATE":null,"SEMIMAJOR_AXIS":"6917.906","CENTER_NAME":"EARTH","OBJECT_NAME":"STARLINK-3317","CLASSIFICATION_TYPE":"U"},{"RA_OF_ASC_NODE":"256.6972","INCLINATION":"53.2157","REV_AT_EPOCH":"3077","MEAN_MOTION_DOT":"-0.00000561","RCS_SIZE":"LARGE","SITE":"AFWTR","ELEMENT_SET_NO":"999","DECAY_DATE":null,"TLE_LINE1":"1 50157U 21125B   22166.95215463 -.00000561  00000-0 -17158-4 0  9991","TIME_SYSTEM":"UTC","LAUNCH_DATE":"2021-12-18","CLASSIFICATION_TYPE":"U","OBJECT_NAME":"STARLINK-3313","CENTER_NAME":"EARTH","SEMIMAJOR_AXIS":"6917.870","FILE":"3497002","APOAPSIS":"541.378","COUNTRY_CODE":"US","BSTAR":"-0.00001715800000","PERIOD":"95.437","EPOCH":"2022-06-15T22:51:06.160032","MEAN_MOTION":"15.08843500","TLE_LINE2":"2 50157  53.2157 256.6972 0002376  34.3077 325.8068 15.08843500 30775","ECCENTRICITY":"0.00023760","MEAN_MOTION_DDOT":"0.0000000000000","OBJECT_TYPE":"PAYLOAD","REF_FRAME":"TEME","GP_ID":"206290409","PERIAPSIS":"538.091","OBJECT_ID":"2021-125B","MEAN_ANOMALY":"325.8068","ARG_OF_PERICENTER":"34.3077","MEAN_ELEMENT_THEORY":"SGP4","NORAD_CAT_ID":"50157","EPHEMERIS_TYPE":"0"},{"MEAN_MOTION":"15.08834879","COUNTRY_CODE":"US","FILE":"3497002","APOAPSIS":"541.405","EPOCH":"2022-06-15T22:35:12.681600","PERIOD":"95.438","BSTAR":"-0.00005980700000","OBJECT_ID":"2021-125C","PERIAPSIS":"538.117","GP_ID":"206289164","REF_FRAME":"TEME","OBJECT_TYPE":"PAYLOAD","EPHEMERIS_TYPE":"0","NORAD_CAT_ID":"50158","MEAN_ANOMALY":"329.2995","MEAN_ELEMENT_THEORY":"SGP4","ARG_OF_PERICENTER":"30.8137","TLE_LINE2":"2 50158  53.2164 256.7504 0002377  30.8137 329.2995 15.08834879 30793","MEAN_MOTION_DDOT":"0.0000000000000","ECCENTRICITY":"0.00023770","RCS_SIZE":"LARGE","SITE":"AFWTR","INCLINATION":"53.2164","RA_OF_ASC_NODE":"256.7504","MEAN_MOTION_DOT":"-0.00001240","REV_AT_EPOCH":"3079","OBJECT_NAME":"STARLINK-3309","CLASSIFICATION_TYPE":"U","SEMIMAJOR_AXIS":"6917.896","CENTER_NAME":"EARTH","DECAY_DATE":null,"ELEMENT_SET_NO":"999","TIME_SYSTEM":"UTC","LAUNCH_DATE":"2021-12-18","TLE_LINE1":"1 50158U 21125C   22166.94111900 -.00001240  00000-0 -59807-4 0  9994"}];
